STARLINK-35496          
1 66114U 25237A   25322.83335647 -.01438107  00000+0 -38371-1 0  9998
2 66114  53.1598 200.1231 0000890 100.5043 101.2641 15.40592049  5638
STARLINK-35428          
1 66115U 25237B   25322.83335647  .00000682  00000+0  27037-4 0  9999
2 66115  53.1596 200.2754 0001487 106.9384  18.0669 15.39618537  5633
STARLINK-35573          
1 66116U 25237C   25322.40436389  .00101610  00000+0  18139-2 0  9992
2 66116  53.1611 202.1102 0002431  37.3147 322.8030 15.49267070  5499
STARLINK-35572          
1 66117U 25237D   25322.83335647  .00001600  00000+0  49972-4 0  9994
2 66117  53.1600 200.2243 0001101  99.0320  51.7345 15.39613938  5634
STARLINK-35468          
1 66118U 25237E   25322.83335647  .00003980  00000+0  10944-3 0  9994
2 66118  53.1593 200.3263 0001288 102.3867 356.8713 15.39613083  5638
STARLINK-35547          
1 66119U 25237F   25320.91892887  .00112881  00000+0  20069-2 0  9995
2 66119  53.1599 209.1905 0000836  83.5831 276.5273 15.49330623  5269
STARLINK-35553          
1 66120U 25237G   25322.83335647  .00002895  00000+0  82369-4 0  9992
2 66120  53.1602 200.1728 0001369  91.1084  85.4312 15.39609755  5633
STARLINK-35631          
1 66121U 25237H   25322.66098932  .00084837  00000+0  15126-2 0  9998
2 66121  53.1604 200.8648 0001417  82.2728 277.8442 15.49390297  5533
STARLINK-35653          
1 66122U 25237J   25322.40227762  .00076270  00000+0  13643-2 0  9990
2 66122  53.1594 202.0956 0001591  76.7365 283.3821 15.49344281  5496
STARLINK-35628          
1 66123U 25237K   25322.40193213  .00079165  00000+0  14149-2 0  9992
2 66123  53.1619 202.0927 0000833  71.7093 288.4007 15.49352724  5497
STARLINK-35645          
1 66124U 25237L   25322.65962103  .00085487  00000+0  15246-2 0  9995
2 66124  53.1609 200.8578 0001123  82.1195 277.9942 15.49378347  5532
STARLINK-35649          
1 66125U 25237M   25322.65927705  .00093651  00000+0  16674-2 0  9993
2 66125  53.1607 200.8545 0001218 307.9693  52.1206 15.49384188  5537
