CCSDS_OMM_VERS = 2.0
CREATION_DATE  = 
ORIGINATOR     = 

OBJECT_NAME    = STARLINK-35496
OBJECT_ID      = 2025-237A
CENTER_NAME    = EARTH
REF_FRAME      = TEME
TIME_SYSTEM    = UTC
MEAN_ELEMENT_THEORY = SGP/SGP4

EPOCH          = 2025-11-18T20:00:01.999008
MEAN_MOTION    = 15.40592049
ECCENTRICITY   = .000089
INCLINATION    = 53.1598
RA_OF_ASC_NODE = 200.1231
ARG_OF_PERICENTER = 100.5043
MEAN_ANOMALY   = 101.2641

EPHEMERIS_TYPE = 0
CLASSIFICATION_TYPE = U
NORAD_CAT_ID   = 66114
ELEMENT_SET_NO = 999
REV_AT_EPOCH   = 563
BSTAR          = -.38371E-1
MEAN_MOTION_DOT = -.1438107E-1
MEAN_MOTION_DDOT = 0

CCSDS_OMM_VERS = 2.0
CREATION_DATE  = 
ORIGINATOR     = 

OBJECT_NAME    = STARLINK-35428
OBJECT_ID      = 2025-237B
CENTER_NAME    = EARTH
REF_FRAME      = TEME
TIME_SYSTEM    = UTC
MEAN_ELEMENT_THEORY = SGP/SGP4

EPOCH          = 2025-11-18T20:00:01.999008
MEAN_MOTION    = 15.39618537
ECCENTRICITY   = .0001487
INCLINATION    = 53.1596
RA_OF_ASC_NODE = 200.2754
ARG_OF_PERICENTER = 106.9384
MEAN_ANOMALY   = 18.0669

EPHEMERIS_TYPE = 0
CLASSIFICATION_TYPE = U
NORAD_CAT_ID   = 66115
ELEMENT_SET_NO = 999
REV_AT_EPOCH   = 563
BSTAR          = .27037E-4
MEAN_MOTION_DOT = .682E-5
MEAN_MOTION_DDOT = 0

CCSDS_OMM_VERS = 2.0
CREATION_DATE  = 
ORIGINATOR     = 

OBJECT_NAME    = STARLINK-35573
OBJECT_ID      = 2025-237C
CENTER_NAME    = EARTH
REF_FRAME      = TEME
TIME_SYSTEM    = UTC
MEAN_ELEMENT_THEORY = SGP/SGP4

EPOCH          = 2025-11-18T09:42:17.040096
MEAN_MOTION    = 15.49267070
ECCENTRICITY   = .0002431
INCLINATION    = 53.1611
RA_OF_ASC_NODE = 202.1102
ARG_OF_PERICENTER = 37.3147
MEAN_ANOMALY   = 322.8030

EPHEMERIS_TYPE = 0
CLASSIFICATION_TYPE = U
NORAD_CAT_ID   = 66116
ELEMENT_SET_NO = 999
REV_AT_EPOCH   = 549
BSTAR          = .18139E-2
MEAN_MOTION_DOT = .10161E-2
MEAN_MOTION_DDOT = 0

CCSDS_OMM_VERS = 2.0
CREATION_DATE  = 
ORIGINATOR     = 

OBJECT_NAME    = STARLINK-35572
OBJECT_ID      = 2025-237D
CENTER_NAME    = EARTH
REF_FRAME      = TEME
TIME_SYSTEM    = UTC
MEAN_ELEMENT_THEORY = SGP/SGP4

EPOCH          = 2025-11-18T20:00:01.999008
MEAN_MOTION    = 15.39613938
ECCENTRICITY   = .0001101
INCLINATION    = 53.1600
RA_OF_ASC_NODE = 200.2243
ARG_OF_PERICENTER = 99.0320
MEAN_ANOMALY   = 51.7345

EPHEMERIS_TYPE = 0
CLASSIFICATION_TYPE = U
NORAD_CAT_ID   = 66117
ELEMENT_SET_NO = 999
REV_AT_EPOCH   = 563
BSTAR          = .49972E-4
MEAN_MOTION_DOT = .16E-4
MEAN_MOTION_DDOT = 0

CCSDS_OMM_VERS = 2.0
CREATION_DATE  = 
ORIGINATOR     = 

OBJECT_NAME    = STARLINK-35468
OBJECT_ID      = 2025-237E
CENTER_NAME    = EARTH
REF_FRAME      = TEME
TIME_SYSTEM    = UTC
MEAN_ELEMENT_THEORY = SGP/SGP4

EPOCH          = 2025-11-18T20:00:01.999008
MEAN_MOTION    = 15.39613083
ECCENTRICITY   = .0001288
INCLINATION    = 53.1593
RA_OF_ASC_NODE = 200.3263
ARG_OF_PERICENTER = 102.3867
MEAN_ANOMALY   = 356.8713

EPHEMERIS_TYPE = 0
CLASSIFICATION_TYPE = U
NORAD_CAT_ID   = 66118
ELEMENT_SET_NO = 999
REV_AT_EPOCH   = 563
BSTAR          = .10944E-3
MEAN_MOTION_DOT = .398E-4
MEAN_MOTION_DDOT = 0

CCSDS_OMM_VERS = 2.0
CREATION_DATE  = 
ORIGINATOR     = 

OBJECT_NAME    = STARLINK-35547
OBJECT_ID      = 2025-237F
CENTER_NAME    = EARTH
REF_FRAME      = TEME
TIME_SYSTEM    = UTC
MEAN_ELEMENT_THEORY = SGP/SGP4

EPOCH          = 2025-11-16T22:03:15.454368
MEAN_MOTION    = 15.49330623
ECCENTRICITY   = .00008361
INCLINATION    = 53.1599
RA_OF_ASC_NODE = 209.1905
ARG_OF_PERICENTER = 83.5831
MEAN_ANOMALY   = 276.5273

EPHEMERIS_TYPE = 0
CLASSIFICATION_TYPE = U
NORAD_CAT_ID   = 66119
ELEMENT_SET_NO = 999
REV_AT_EPOCH   = 526
BSTAR          = .2006936E-2
MEAN_MOTION_DOT = .112881E-2
MEAN_MOTION_DDOT = 0

CCSDS_OMM_VERS = 2.0
CREATION_DATE  = 
ORIGINATOR     = 

OBJECT_NAME    = STARLINK-35553
OBJECT_ID      = 2025-237G
CENTER_NAME    = EARTH
REF_FRAME      = TEME
TIME_SYSTEM    = UTC
MEAN_ELEMENT_THEORY = SGP/SGP4

EPOCH          = 2025-11-18T20:00:01.999008
MEAN_MOTION    = 15.39609755
ECCENTRICITY   = .0001369
INCLINATION    = 53.1602
RA_OF_ASC_NODE = 200.1728
ARG_OF_PERICENTER = 91.1084
MEAN_ANOMALY   = 85.4312

EPHEMERIS_TYPE = 0
CLASSIFICATION_TYPE = U
NORAD_CAT_ID   = 66120
ELEMENT_SET_NO = 999
REV_AT_EPOCH   = 563
BSTAR          = .82369E-4
MEAN_MOTION_DOT = .2895E-4
MEAN_MOTION_DDOT = 0

CCSDS_OMM_VERS = 2.0
CREATION_DATE  = 
ORIGINATOR     = 

OBJECT_NAME    = STARLINK-35631
OBJECT_ID      = 2025-237H
CENTER_NAME    = EARTH
REF_FRAME      = TEME
TIME_SYSTEM    = UTC
MEAN_ELEMENT_THEORY = SGP/SGP4

EPOCH          = 2025-11-18T15:51:49.477248
MEAN_MOTION    = 15.49390297
ECCENTRICITY   = .0001417
INCLINATION    = 53.1604
RA_OF_ASC_NODE = 200.8648
ARG_OF_PERICENTER = 82.2728
MEAN_ANOMALY   = 277.8442

EPHEMERIS_TYPE = 0
CLASSIFICATION_TYPE = U
NORAD_CAT_ID   = 66121
ELEMENT_SET_NO = 999
REV_AT_EPOCH   = 553
BSTAR          = .15126E-2
MEAN_MOTION_DOT = .84837E-3
MEAN_MOTION_DDOT = 0

CCSDS_OMM_VERS = 2.0
CREATION_DATE  = 
ORIGINATOR     = 

OBJECT_NAME    = STARLINK-35653
OBJECT_ID      = 2025-237J
CENTER_NAME    = EARTH
REF_FRAME      = TEME
TIME_SYSTEM    = UTC
MEAN_ELEMENT_THEORY = SGP/SGP4

EPOCH          = 2025-11-18T09:39:16.786368
MEAN_MOTION    = 15.49344281
ECCENTRICITY   = .0001591
INCLINATION    = 53.1594
RA_OF_ASC_NODE = 202.0956
ARG_OF_PERICENTER = 76.7365
MEAN_ANOMALY   = 283.3821

EPHEMERIS_TYPE = 0
CLASSIFICATION_TYPE = U
NORAD_CAT_ID   = 66122
ELEMENT_SET_NO = 999
REV_AT_EPOCH   = 549
BSTAR          = .13643E-2
MEAN_MOTION_DOT = .7627E-3
MEAN_MOTION_DDOT = 0

CCSDS_OMM_VERS = 2.0
CREATION_DATE  = 
ORIGINATOR     = 

OBJECT_NAME    = STARLINK-35628
OBJECT_ID      = 2025-237K
CENTER_NAME    = EARTH
REF_FRAME      = TEME
TIME_SYSTEM    = UTC
MEAN_ELEMENT_THEORY = SGP/SGP4

EPOCH          = 2025-11-18T09:38:46.936032
MEAN_MOTION    = 15.49352724
ECCENTRICITY   = .0000833
INCLINATION    = 53.1619
RA_OF_ASC_NODE = 202.0927
ARG_OF_PERICENTER = 71.7093
MEAN_ANOMALY   = 288.4007

EPHEMERIS_TYPE = 0
CLASSIFICATION_TYPE = U
NORAD_CAT_ID   = 66123
ELEMENT_SET_NO = 999
REV_AT_EPOCH   = 549
BSTAR          = .14149E-2
MEAN_MOTION_DOT = .79165E-3
MEAN_MOTION_DDOT = 0

CCSDS_OMM_VERS = 2.0
CREATION_DATE  = 
ORIGINATOR     = 

OBJECT_NAME    = STARLINK-35645
OBJECT_ID      = 2025-237L
CENTER_NAME    = EARTH
REF_FRAME      = TEME
TIME_SYSTEM    = UTC
MEAN_ELEMENT_THEORY = SGP/SGP4

EPOCH          = 2025-11-18T15:49:51.256992
MEAN_MOTION    = 15.49378347
ECCENTRICITY   = .0001123
INCLINATION    = 53.1609
RA_OF_ASC_NODE = 200.8578
ARG_OF_PERICENTER = 82.1195
MEAN_ANOMALY   = 277.9942

EPHEMERIS_TYPE = 0
CLASSIFICATION_TYPE = U
NORAD_CAT_ID   = 66124
ELEMENT_SET_NO = 999
REV_AT_EPOCH   = 553
BSTAR          = .15246E-2
MEAN_MOTION_DOT = .85487E-3
MEAN_MOTION_DDOT = 0

CCSDS_OMM_VERS = 2.0
CREATION_DATE  = 
ORIGINATOR     = 

OBJECT_NAME    = STARLINK-35649
OBJECT_ID      = 2025-237M
CENTER_NAME    = EARTH
REF_FRAME      = TEME
TIME_SYSTEM    = UTC
MEAN_ELEMENT_THEORY = SGP/SGP4

EPOCH          = 2025-11-18T15:49:21.537120
MEAN_MOTION    = 15.49384188
ECCENTRICITY   = .0001218
INCLINATION    = 53.1607
RA_OF_ASC_NODE = 200.8545
ARG_OF_PERICENTER = 307.9693
MEAN_ANOMALY   = 52.1206

EPHEMERIS_TYPE = 0
CLASSIFICATION_TYPE = U
NORAD_CAT_ID   = 66125
ELEMENT_SET_NO = 999
REV_AT_EPOCH   = 553
BSTAR          = .16674E-2
MEAN_MOTION_DOT = .93651E-3
MEAN_MOTION_DDOT = 0

